IRIDIUM 106             
1 41917U 17003A   25097.53062555 -.00000006  00000+0 -90553-5 0  9991
2 41917  86.3911 270.5452 0001541  99.9785 260.1584 14.34217622430763
IRIDIUM 103             
1 41918U 17003B   25097.93655211  .00000037  00000+0  62377-5 0  9998
2 41918  86.3913 270.2760 0001948  74.5283 285.6127 14.34217843430847
IRIDIUM 109             
1 41919U 17003C   25097.94289489  .00000516  00000+0  17721-3 0  9993
2 41919  86.3916 270.3255 0002230  86.3000 273.8450 14.34215757430811
IRIDIUM 102             
1 41920U 17003D   25097.91118220  .00000004  00000+0 -56742-5 0  9997
2 41920  86.3912 270.2719 0002093  95.5039 264.6395 14.34217781430897
IRIDIUM 105             
1 41921U 17003E   25097.81213040  .00000679  00000+0  23548-3 0  9996
2 41921  86.3968 238.7364 0002022  89.1223 271.0205 14.34219922432736
IRIDIUM 104             
1 41922U 17003F   25097.92386764  .00000026  00000+0  20537-5 0  9996
2 41922  86.3914 270.3024 0002338  80.6858 279.4602 14.34217953430882
IRIDIUM 114             
1 41923U 17003G   25097.93020963  .00000005  00000+0 -53586-5 0  9992
2 41923  86.3912 270.2847 0001844  85.7697 274.3709 14.34217664430860
IRIDIUM 108             
1 41924U 17003H   25097.88873205  .00000313  00000+0  10460-3 0  9995
2 41924  86.3965 238.6103 0001972 100.8914 259.2504 14.34215764432715
